{
  "type": "FeatureCollection",
  "features": [
    {
      "type": "Feature",
      "properties": {
        "norad_id": 29780,
        "name": "FENGYUN 1C DEB",
        "group": "fengyun-1c-debris",
        "lat": 17.421694844898454,
        "lon": -93.44706369896997,
        "alt_km": 829.8125047662816,
        "timestamp": "2025-12-14T11:29:50.331656+00:00",
        "meta_object_name": "FENGYUN 1C DEB",
        "meta_object_id": "1999-025BW",
        "meta_epoch": "2025-12-12T00:16:11.656128",
        "meta_mean_motion": 14.21032654,
        "meta_eccentricity": 0.00404925,
        "meta_inclination": 99.2771,
        "meta_ra_of_asc_node": 266.9031,
        "meta_arg_of_pericenter": 130.2254,
        "meta_mean_anomaly": 230.2476,
        "meta_ephemeris_type": 0,
        "meta_classification_type": "U",
        "meta_norad_cat_id": 29780,
        "meta_element_set_no": 999,
        "meta_rev_at_epoch": 97068,
        "meta_bstar": 0.0026897266,
        "meta_mean_motion_dot": 5.839e-05,
        "meta_mean_motion_ddot": 0,
        "tle_line1": "1 29780U 99025BW  25346.01124602  .00005839  00000+0  26897-2 0  9995",
        "tle_line2": "2 29780  99.2771 266.9031 0040492 130.2254 230.2476 14.21032654970688"
      },
      "geometry": {
        "type": "Point",
        "coordinates": [
          -93.44706369896997,
          17.421694844898454
        ]
      }
    },
    {
      "type": "Feature",
      "properties": {
        "norad_id": 29781,
        "name": "FENGYUN 1C DEB",
        "group": "fengyun-1c-debris",
        "lat": -49.96102320848523,
        "lon": 151.94932406215509,
        "alt_km": 858.1414730871302,
        "timestamp": "2025-12-14T11:29:50.331666+00:00",
        "meta_object_name": "FENGYUN 1C DEB",
        "meta_object_id": "1999-025BX",
        "meta_epoch": "2025-12-13T12:47:08.392128",
        "meta_mean_motion": 14.05227972,
        "meta_eccentricity": 0.00719173,
        "meta_inclination": 98.8096,
        "meta_ra_of_asc_node": 341.6655,
        "meta_arg_of_pericenter": 170.9224,
        "meta_mean_anomaly": 314.4433,
        "meta_ephemeris_type": 0,
        "meta_classification_type": "U",
        "meta_norad_cat_id": 29781,
        "meta_element_set_no": 999,
        "meta_rev_at_epoch": 96654,
        "meta_bstar": 0.00085670101,
        "meta_mean_motion_dot": 1.375e-05,
        "meta_mean_motion_ddot": 0,
        "tle_line1": "1 29781U 99025BX  25347.53273602  .00001375  00000+0  85670-3 0  9995",
        "tle_line2": "2 29781  98.8096 341.6655 0071917 170.9224 314.4433 14.05227972966540"
      },
      "geometry": {
        "type": "Point",
        "coordinates": [
          151.94932406215509,
          -49.96102320848523
        ]
      }
    },
    {
      "type": "Feature",
      "properties": {
        "norad_id": 29782,
        "name": "FENGYUN 1C DEB",
        "group": "fengyun-1c-debris",
        "lat": -50.965964400078725,
        "lon": 53.500908516423124,
        "alt_km": 874.0438120456756,
        "timestamp": "2025-12-14T11:29:50.331676+00:00",
        "meta_object_name": "FENGYUN 1C DEB",
        "meta_object_id": "1999-025BY",
        "meta_epoch": "2025-12-13T15:55:46.845696",
        "meta_mean_motion": 14.11668883,
        "meta_eccentricity": 0.00555302,
        "meta_inclination": 99.1005,
        "meta_ra_of_asc_node": 41.2721,
        "meta_arg_of_pericenter": 200.5101,
        "meta_mean_anomaly": 285.9206,
        "meta_ephemeris_type": 0,
        "meta_classification_type": "U",
        "meta_norad_cat_id": 29782,
        "meta_element_set_no": 999,
        "meta_rev_at_epoch": 96684,
        "meta_bstar": 0.0017173068,
        "meta_mean_motion_dot": 3.125e-05,
        "meta_mean_motion_ddot": 0,
        "tle_line1": "1 29782U 99025BY  25347.66373664  .00003125  00000+0  17173-2 0  9996",
        "tle_line2": "2 29782  99.1005  41.2721 0055530 200.5101 285.9206 14.11668883966849"
      },
      "geometry": {
        "type": "Point",
        "coordinates": [
          53.500908516423124,
          -50.965964400078725
        ]
      }
    },
    {
      "type": "Feature",
      "properties": {
        "norad_id": 29784,
        "name": "FENGYUN 1C DEB",
        "group": "fengyun-1c-debris",
        "lat": -37.55131967348071,
        "lon": 80.37100877385488,
        "alt_km": 784.3412679765306,
        "timestamp": "2025-12-14T11:29:50.331686+00:00",
        "meta_object_name": "FENGYUN 1C DEB",
        "meta_object_id": "1999-025CA",
        "meta_epoch": "2025-12-13T16:19:17.791392",
        "meta_mean_motion": 14.30588081,
        "meta_eccentricity": 0.00593947,
        "meta_inclination": 98.9452,
        "meta_ra_of_asc_node": 266.5041,
        "meta_arg_of_pericenter": 294.6207,
        "meta_mean_anomaly": 131.4715,
        "meta_ephemeris_type": 0,
        "meta_classification_type": "U",
        "meta_norad_cat_id": 29784,
        "meta_element_set_no": 999,
        "meta_rev_at_epoch": 98373,
        "meta_bstar": 0.00075756938,
        "meta_mean_motion_dot": 1.968e-05,
        "meta_mean_motion_ddot": 0,
        "tle_line1": "1 29784U 99025CA  25347.68006703  .00001968  00000+0  75757-3 0  9993",
        "tle_line2": "2 29784  98.9452 266.5041 0059394 294.6207 131.4715 14.30588081983733"
      },
      "geometry": {
        "type": "Point",
        "coordinates": [
          80.37100877385488,
          -37.55131967348071
        ]
      }
    },
    {
      "type": "Feature",
      "properties": {
        "norad_id": 29786,
        "name": "FENGYUN 1C DEB",
        "group": "fengyun-1c-debris",
        "lat": 23.964936909645257,
        "lon": 1.724523951052424,
        "alt_km": 857.7942300032328,
        "timestamp": "2025-12-14T11:29:50.331697+00:00",
        "meta_object_name": "FENGYUN 1C DEB",
        "meta_object_id": "1999-025CC",
        "meta_epoch": "2025-12-13T13:49:22.015200",
        "meta_mean_motion": 14.09085246,
        "meta_eccentricity": 0.00769609,
        "meta_inclination": 98.7358,
        "meta_ra_of_asc_node": 4.7679,
        "meta_arg_of_pericenter": 300.6619,
        "meta_mean_anomaly": 184.1875,
        "meta_ephemeris_type": 0,
        "meta_classification_type": "U",
        "meta_norad_cat_id": 29786,
        "meta_element_set_no": 999,
        "meta_rev_at_epoch": 97172,
        "meta_bstar": 0.00029544532,
        "meta_mean_motion_dot": 4.83e-06,
        "meta_mean_motion_ddot": 0,
        "tle_line1": "1 29786U 99025CC  25347.57594925  .00000483  00000+0  29545-3 0  9996",
        "tle_line2": "2 29786  98.7358   4.7679 0076960 300.6619 184.1875 14.09085246971729"
      },
      "geometry": {
        "type": "Point",
        "coordinates": [
          1.724523951052424,
          23.964936909645257
        ]
      }
    },
    {
      "type": "Feature",
      "properties": {
        "norad_id": 29788,
        "name": "FENGYUN 1C DEB",
        "group": "fengyun-1c-debris",
        "lat": 61.67373627958788,
        "lon": 43.43682792434475,
        "alt_km": 815.0283065504564,
        "timestamp": "2025-12-14T11:29:50.331707+00:00",
        "meta_object_name": "FENGYUN 1C DEB",
        "meta_object_id": "1999-025CE",
        "meta_epoch": "2025-12-13T15:43:31.057248",
        "meta_mean_motion": 14.25983995,
        "meta_eccentricity": 0.00431119,
        "meta_inclination": 98.7842,
        "meta_ra_of_asc_node": 59.2809,
        "meta_arg_of_pericenter": 186.5173,
        "meta_mean_anomaly": 330.1099,
        "meta_ephemeris_type": 0,
        "meta_classification_type": "U",
        "meta_norad_cat_id": 29788,
        "meta_element_set_no": 999,
        "meta_rev_at_epoch": 97368,
        "meta_bstar": 0.0021237156,
        "meta_mean_motion_dot": 5.074e-05,
        "meta_mean_motion_ddot": 0,
        "tle_line1": "1 29788U 99025CE  25347.65522057  .00005074  00000+0  21237-2 0  9994",
        "tle_line2": "2 29788  98.7842  59.2809 0043111 186.5173 330.1099 14.25983995973681"
      },
      "geometry": {
        "type": "Point",
        "coordinates": [
          43.43682792434475,
          61.67373627958788
        ]
      }
    },
    {
      "type": "Feature",
      "properties": {
        "norad_id": 29789,
        "name": "FENGYUN 1C DEB",
        "group": "fengyun-1c-debris",
        "lat": 59.46436913969298,
        "lon": 7.600371683854202,
        "alt_km": 1251.1409913693215,
        "timestamp": "2025-12-14T11:29:50.331717+00:00",
        "meta_object_name": "FENGYUN 1C DEB",
        "meta_object_id": "1999-025CF",
        "meta_epoch": "2025-12-13T10:22:29.888832",
        "meta_mean_motion": 13.54243049,
        "meta_eccentricity": 0.02983232,
        "meta_inclination": 99.451,
        "meta_ra_of_asc_node": 170.197,
        "meta_arg_of_pericenter": 277.0377,
        "meta_mean_anomaly": 142.9128,
        "meta_ephemeris_type": 0,
        "meta_classification_type": "U",
        "meta_norad_cat_id": 29789,
        "meta_element_set_no": 999,
        "meta_rev_at_epoch": 92997,
        "meta_bstar": 0.0020019466,
        "meta_mean_motion_dot": 1.764e-05,
        "meta_mean_motion_ddot": 0,
        "tle_line1": "1 29789U 99025CF  25347.43229038  .00001764  00000+0  20019-2 0  9993",
        "tle_line2": "2 29789  99.4510 170.1970 0298323 277.0377 142.9128 13.54243049929978"
      },
      "geometry": {
        "type": "Point",
        "coordinates": [
          7.600371683854202,
          59.46436913969298
        ]
      }
    }
  ]
}